{"type": "FeatureCollection", "features": [ {"type": "Feature", "properties": {"norad_id": 42741, "name": "EUTELSAT 172B", "group": "eutelsat", "lat": -0.003944098858480959, "lon": 34.91069822221849, "alt_km": 35785.211264962345, "timestamp": "2025-12-19T08:58:49.008688+00:00", "meta": {"OBJECT_NAME": "EUTELSAT 172B", "OBJECT_ID": "2017-029B", "EPOCH": "2025-12-18T19:14:55.597632", "MEAN_MOTION": 1.00272425, "ECCENTRICITY": 2.252e-05, "INCLINATION": 0.0465, "RA_OF_ASC_NODE": 142.7922, "ARG_OF_PERICENTER": 297.5777, "MEAN_ANOMALY": 108.0155, "EPHEMERIS_TYPE": 0, "CLASSIFICATION_TYPE": "U", "NORAD_CAT_ID": 42741, "ELEMENT_SET_NO": 999, "REV_AT_EPOCH": 3192, "BSTAR": 0, "MEAN_MOTION_DOT": 2e-07, "MEAN_MOTION_DDOT": 0}, "tle": {"line1": "1 42741U 17029B   25352.80203238  .00000020  00000+0  00000+0 0  9990", "line2": "2 42741   0.0465 142.7922 0000225 297.5777 108.0155  1.00272425 31923"}}, "geometry": {"type": "Point", "coordinates": [34.91069822221849, -0.003944098858480959]}}, {"type": "Feature", "properties": {"norad_id": 44334, "name": "EUTELSAT 7C", "group": "eutelsat", "lat": 0.02932450789793325, "lon": -130.11028223067353, "alt_km": 35774.21449566785, "timestamp": "2025-12-19T08:58:49.008700+00:00", "meta": {"OBJECT_NAME": "EUTELSAT 7C", "OBJECT_ID": "2019-034B", "EPOCH": "2025-12-18T15:02:24.148896", "MEAN_MOTION": 1.00271261, "ECCENTRICITY": 0.00030271, "INCLINATION": 0.073, "RA_OF_ASC_NODE": 178.0783, "ARG_OF_PERICENTER": 72.8613, "MEAN_ANOMALY": 69.1342, "EPHEMERIS_TYPE": 0, "CLASSIFICATION_TYPE": "U", "NORAD_CAT_ID": 44334, "ELEMENT_SET_NO": 999, "REV_AT_EPOCH": 502, "BSTAR": 0, "MEAN_MOTION_DOT": 7.3e-07, "MEAN_MOTION_DDOT": 0}, "tle": {"line1": "1 44334U 19034B   25352.62666839  .00000073  00000+0  00000+0 0  9996", "line2": "2 44334   0.0730 178.0783 0003027  72.8613  69.1342  1.00271261  5025"}}, "geometry": {"type": "Point", "coordinates": [-130.11028223067353, 0.02932450789793325]}}, {"type": "Feature", "properties": {"norad_id": 44624, "name": "EUTELSAT 5 WEST B", "group": "eutelsat", "lat": -0.08393110958321888, "lon": -142.10227180954868, "alt_km": 35778.063451404545, "timestamp": "2025-12-19T08:58:49.008712+00:00", "meta": {"OBJECT_NAME": "EUTELSAT 5 WEST B", "OBJECT_ID": "2019-067A", "EPOCH": "2025-12-18T14:59:01.972032", "MEAN_MOTION": 1.00271288, "ECCENTRICITY": 0.00030017, "INCLINATION": 0.0695, "RA_OF_ASC_NODE": 331.3253, "ARG_OF_PERICENTER": 296.7511, "MEAN_ANOMALY": 39.1751, "EPHEMERIS_TYPE": 0, "CLASSIFICATION_TYPE": "U", "NORAD_CAT_ID": 44624, "ELEMENT_SET_NO": 999, "REV_AT_EPOCH": 2262, "BSTAR": 0, "MEAN_MOTION_DOT": -1.7e-07, "MEAN_MOTION_DDOT": 0}, "tle": {"line1": "1 44624U 19067A   25352.62432838 -.00000017  00000+0  00000+0 0  9993", "line2": "2 44624   0.0695 331.3253 0003001 296.7511  39.1751  1.00271288 22624"}}, "geometry": {"type": "Point", "coordinates": [-142.10227180954868, -0.08393110958321888]}}, {"type": "Feature", "properties": {"norad_id": 45027, "name": "EUTELSAT KONNECT", "group": "eutelsat", "lat": 0.024931328755646225, "lon": -129.8936343685737, "alt_km": 35782.88400567078, "timestamp": "2025-12-19T08:58:49.008724+00:00", "meta": {"OBJECT_NAME": "EUTELSAT KONNECT", "OBJECT_ID": "2020-005B", "EPOCH": "2025-12-18T15:02:31.637184", "MEAN_MOTION": 1.00271854, "ECCENTRICITY": 0.00013062, "INCLINATION": 0.0731, "RA_OF_ASC_NODE": 95.4615, "ARG_OF_PERICENTER": 190.4779, "MEAN_ANOMALY": 34.3804, "EPHEMERIS_TYPE": 0, "CLASSIFICATION_TYPE": "U", "NORAD_CAT_ID": 45027, "ELEMENT_SET_NO": 999, "REV_AT_EPOCH": 2252, "BSTAR": 0, "MEAN_MOTION_DOT": 7.5e-07, "MEAN_MOTION_DDOT": 0}, "tle": {"line1": "1 45027U 20005B   25352.62675506  .00000075  00000+0  00000+0 0  9999", "line2": "2 45027   0.0731  95.4615 0001306 190.4779  34.3804  1.00271854 22529"}}, "geometry": {"type": "Point", "coordinates": [-129.8936343685737, 0.024931328755646225]}}, {"type": "Feature", "properties": {"norad_id": 49056, "name": "EUTELSAT QUANTUM", "group": "eutelsat", "lat": -0.039463303089880705, "lon": -89.3840056885229, "alt_km": 35772.153519697116, "timestamp": "2025-12-19T08:58:49.008736+00:00", "meta": {"OBJECT_NAME": "EUTELSAT QUANTUM", "OBJECT_ID": "2021-069B", "EPOCH": "2025-12-18T20:33:38.880864", "MEAN_MOTION": 1.0027143, "ECCENTRICITY": 0.00033292, "INCLINATION": 0.0162, "RA_OF_ASC_NODE": 23.3718, "ARG_OF_PERICENTER": 255.1495, "MEAN_ANOMALY": 165.3089, "EPHEMERIS_TYPE": 0, "CLASSIFICATION_TYPE": "U", "NORAD_CAT_ID": 49056, "ELEMENT_SET_NO": 999, "REV_AT_EPOCH": 1612, "BSTAR": 0, "MEAN_MOTION_DOT": 1.51e-06, "MEAN_MOTION_DDOT": 0}, "tle": {"line1": "1 49056U 21069B   25352.85670001  .00000151  00000+0  00000+0 0  9991", "line2": "2 49056   0.0162  23.3718 0003329 255.1495 165.3089  1.00271430 16127"}}, "geometry": {"type": "Point", "coordinates": [-89.3840056885229, -0.039463303089880705]}}, {"type": "Feature", "properties": {"norad_id": 53765, "name": "EUTELSAT KONNECT VHTS", "group": "eutelsat", "lat": 0.02459985923150128, "lon": -134.3579151720171, "alt_km": 35777.42123209626, "timestamp": "2025-12-19T08:58:49.008747+00:00", "meta": {"OBJECT_NAME": "EUTELSAT KONNECT VHTS", "OBJECT_ID": "2022-110A", "EPOCH": "2025-12-18T21:13:38.602848", "MEAN_MOTION": 1.0026971, "ECCENTRICITY": 0.00022906, "INCLINATION": 0.0646, "RA_OF_ASC_NODE": 100.662, "ARG_OF_PERICENTER": 142.8901, "MEAN_ANOMALY": 165.3364, "EPHEMERIS_TYPE": 0, "CLASSIFICATION_TYPE": "U", "NORAD_CAT_ID": 53765, "ELEMENT_SET_NO": 999, "REV_AT_EPOCH": 501, "BSTAR": 0, "MEAN_MOTION_DOT": 4.2e-07, "MEAN_MOTION_DDOT": 0}, "tle": {"line1": "1 53765U 22110A   25352.88447457  .00000042  00000+0  00000+0 0  9990", "line2": "2 53765   0.0646 100.6620 0002290 142.8901 165.3364  1.00269710  5017"}}, "geometry": {"type": "Point", "coordinates": [-134.3579151720171, 0.02459985923150128]}}, {"type": "Feature", "properties": {"norad_id": 54048, "name": "EUTELSAT HOTBIRD 13F", "group": "eutelsat", "lat": -0.06218754723723169, "lon": -124.11120852268438, "alt_km": 35792.011361677214, "timestamp": "2025-12-19T08:58:49.008759+00:00", "meta": {"OBJECT_NAME": "EUTELSAT HOTBIRD 13F", "OBJECT_ID": "2022-134A", "EPOCH": "2025-12-18T15:04:08.982336", "MEAN_MOTION": 1.00271613, "ECCENTRICITY": 0.00022524, "INCLINATION": 0.0514, "RA_OF_ASC_NODE": 293.3957, "ARG_OF_PERICENTER": 71.3583, "MEAN_ANOMALY": 321.7634, "EPHEMERIS_TYPE": 0, "CLASSIFICATION_TYPE": "U", "NORAD_CAT_ID": 54048, "ELEMENT_SET_NO": 999, "REV_AT_EPOCH": 1156, "BSTAR": 0, "MEAN_MOTION_DOT": 1.12e-06, "MEAN_MOTION_DDOT": 0}, "tle": {"line1": "1 54048U 22134A   25352.62788174  .00000112  00000+0  00000+0 0  9995", "line2": "2 54048   0.0514 293.3957 0002252  71.3583 321.7634  1.00271613 11569"}}, "geometry": {"type": "Point", "coordinates": [-124.11120852268438, -0.06218754723723169]}}, {"type": "Feature", "properties": {"norad_id": 54225, "name": "EUTELSAT HOTBIRD 13G", "group": "eutelsat", "lat": -0.024408103344430984, "lon": -124.07549221508468, "alt_km": 35782.38868740051, "timestamp": "2025-12-19T08:58:49.008771+00:00", "meta": {"OBJECT_NAME": "EUTELSAT HOTBIRD 13G", "OBJECT_ID": "2022-146A", "EPOCH": "2025-12-18T15:04:08.982336", "MEAN_MOTION": 1.00271439, "ECCENTRICITY": 0.00019057, "INCLINATION": 0.052, "RA_OF_ASC_NODE": 231.39, "ARG_OF_PERICENTER": 302.2873, "MEAN_ANOMALY": 152.837, "EPHEMERIS_TYPE": 0, "CLASSIFICATION_TYPE": "U", "NORAD_CAT_ID": 54225, "ELEMENT_SET_NO": 999, "REV_AT_EPOCH": 565, "BSTAR": 0, "MEAN_MOTION_DOT": 1.12e-06, "MEAN_MOTION_DDOT": 0}, "tle": {"line1": "1 54225U 22146A   25352.62788174  .00000112  00000+0  00000+0 0  9995", "line2": "2 54225   0.0520 231.3900 0001905 302.2873 152.8370  1.00271439  5654"}}, "geometry": {"type": "Point", "coordinates": [-124.07549221508468, -0.024408103344430984]}}, {"type": "Feature", "properties": {"norad_id": 54259, "name": "EUTELSAT 10B", "group": "eutelsat", "lat": 0.015223270553771396, "lon": -127.07865452390199, "alt_km": 35786.65731317467, "timestamp": "2025-12-19T08:58:49.008789+00:00", "meta": {"OBJECT_NAME": "EUTELSAT 10B", "OBJECT_ID": "2022-157A", "EPOCH": "2025-12-18T21:05:38.638752", "MEAN_MOTION": 1.00274831, "ECCENTRICITY": 7.795e-05, "INCLINATION": 0.0625, "RA_OF_ASC_NODE": 98.3066, "ARG_OF_PERICENTER": 18.3202, "MEAN_ANOMALY": 297.5103, "EPHEMERIS_TYPE": 0, "CLASSIFICATION_TYPE": "U", "NORAD_CAT_ID": 54259, "ELEMENT_SET_NO": 999, "REV_AT_EPOCH": 1121, "BSTAR": 0, "MEAN_MOTION_DOT": 9.4e-07, "MEAN_MOTION_DDOT": 0}, "tle": {"line1": "1 54259U 22157A   25352.87891943  .00000094  00000+0  00000+0 0  9999", "line2": "2 54259   0.0625  98.3066 0000779  18.3202 297.5103  1.00274831 11219"}}, "geometry": {"type": "Point", "coordinates": [-127.07865452390199, 0.015223270553771396]}}, {"type": "Feature", "properties": {"norad_id": 59346, "name": "EUTELSAT 36D", "group": "eutelsat", "lat": -0.04787928928784316, "lon": -101.2520924242268, "alt_km": 35786.941487381184, "timestamp": "2025-12-19T08:58:49.008800+00:00", "meta": {"OBJECT_NAME": "EUTELSAT 36D", "OBJECT_ID": "2024-059A", "EPOCH": "2025-12-18T20:41:38.800896", "MEAN_MOTION": 1.00271288, "ECCENTRICITY": 4.444e-05, "INCLINATION": 0.025, "RA_OF_ASC_NODE": 15.8744, "ARG_OF_PERICENTER": 357.4402, "MEAN_ANOMALY": 60.6523, "EPHEMERIS_TYPE": 0, "CLASSIFICATION_TYPE": "U", "NORAD_CAT_ID": 59346, "ELEMENT_SET_NO": 999, "REV_AT_EPOCH": 633, "BSTAR": 0, "MEAN_MOTION_DOT": 0, "MEAN_MOTION_DDOT": 0}, "tle": {"line1": "1 59346U 24059A   25352.86225464  .00000000  00000+0  00000+0 0  9999", "line2": "2 59346   0.0250  15.8744 0000444 357.4402  60.6523  1.00271288  6335"}}, "geometry": {"type": "Point", "coordinates": [-101.2520924242268, -0.04787928928784316]}}]}